{
  "type": "FeatureCollection",
  "features": [
    {
      "type": "Feature",
      "properties": {
        "norad_id": 33376,
        "name": "GALAXY 19 (G-19)",
        "group": "intelsat",
        "lat": 0.006309619750598184,
        "lon": 125.90111267672953,
        "alt_km": 35794.865089142346,
        "timestamp": "2025-12-19T08:58:49.004905+00:00",
        "meta_object_name": "GALAXY 19 (G-19)",
        "meta_object_id": "2008-045A",
        "meta_epoch": "2025-12-18T19:40:55.418304",
        "meta_mean_motion": 1.002717,
        "meta_eccentricity": 0.00025073,
        "meta_inclination": 0.0183,
        "meta_ra_of_asc_node": 288.4873,
        "meta_arg_of_pericenter": 342.8258,
        "meta_mean_anomaly": 14.5961,
        "meta_ephemeris_type": 0,
        "meta_classification_type": "U",
        "meta_norad_cat_id": 33376,
        "meta_element_set_no": 999,
        "meta_rev_at_epoch": 6309,
        "meta_bstar": 0,
        "meta_mean_motion_dot": -1.14e-06,
        "meta_mean_motion_ddot": 0,
        "tle_line1": "1 33376U 08045A   25352.82008586 -.00000114  00000+0  00000+0 0  9998",
        "tle_line2": "2 33376   0.0183 288.4873 0002507 342.8258  14.5961  1.00271700 63094"
      },
      "geometry": {
        "type": "Point",
        "coordinates": [
          125.90111267672953,
          0.006309619750598184
        ]
      }
    },
    {
      "type": "Feature",
      "properties": {
        "norad_id": 35493,
        "name": "FM-5",
        "group": "intelsat",
        "lat": 0.00196798449956435,
        "lon": 136.76728144910186,
        "alt_km": 35782.34754698941,
        "timestamp": "2025-12-19T08:58:49.004918+00:00",
        "meta_object_name": "FM-5",
        "meta_object_id": "2009-034A",
        "meta_epoch": "2025-12-18T19:44:02.618592",
        "meta_mean_motion": 1.00270729,
        "meta_eccentricity": 0.00010193,
        "meta_inclination": 0.0192,
        "meta_ra_of_asc_node": 295.8736,
        "meta_arg_of_pericenter": 219.1281,
        "meta_mean_anomaly": 142.545,
        "meta_ephemeris_type": 0,
        "meta_classification_type": "U",
        "meta_norad_cat_id": 35493,
        "meta_element_set_no": 999,
        "meta_rev_at_epoch": 4483,
        "meta_bstar": 0,
        "meta_mean_motion_dot": -1.75e-06,
        "meta_mean_motion_ddot": 0,
        "tle_line1": "1 35493U 09034A   25352.82225253 -.00000175  00000+0  00000+0 0  9998",
        "tle_line2": "2 35493   0.0192 295.8736 0001019 219.1281 142.5450  1.00270729 44831"
      },
      "geometry": {
        "type": "Point",
        "coordinates": [
          136.76728144910186,
          0.00196798449956435
        ]
      }
    },
    {
      "type": "Feature",
      "properties": {
        "norad_id": 36097,
        "name": "INTELSAT 14 (IS-14)",
        "group": "intelsat",
        "lat": -0.008571299382507681,
        "lon": 177.90097939684514,
        "alt_km": 35788.04992581948,
        "timestamp": "2025-12-19T08:58:49.004930+00:00",
        "meta_object_name": "INTELSAT 14 (IS-14)",
        "meta_object_id": "2009-064A",
        "meta_epoch": "2025-12-18T19:55:46.495200",
        "meta_mean_motion": 1.00271612,
        "meta_eccentricity": 0.0002437,
        "meta_inclination": 0.0117,
        "meta_ra_of_asc_node": 341.287,
        "meta_arg_of_pericenter": 297.1276,
        "meta_mean_anomaly": 63.229,
        "meta_ephemeris_type": 0,
        "meta_classification_type": "U",
        "meta_norad_cat_id": 36097,
        "meta_element_set_no": 999,
        "meta_rev_at_epoch": 5879,
        "meta_bstar": 0,
        "meta_mean_motion_dot": -2.48e-06,
        "meta_mean_motion_ddot": 0,
        "tle_line1": "1 36097U 09064A   25352.83039925 -.00000248  00000+0  00000+0 0  9993",
        "tle_line2": "2 36097   0.0117 341.2870 0002437 297.1276  63.2290  1.00271612 58792"
      },
      "geometry": {
        "type": "Point",
        "coordinates": [
          177.90097939684514,
          -0.008571299382507681
        ]
      }
    },
    {
      "type": "Feature",
      "properties": {
        "norad_id": 36106,
        "name": "INTELSAT 15 (IS-15)",
        "group": "intelsat",
        "lat": -0.03292852238778159,
        "lon": -51.910546669537354,
        "alt_km": 35778.19821689562,
        "timestamp": "2025-12-19T08:58:49.004942+00:00",
        "meta_object_name": "INTELSAT 15 (IS-15)",
        "meta_object_id": "2009-067A",
        "meta_epoch": "2025-12-18T22:15:40.597344",
        "meta_mean_motion": 1.00272402,
        "meta_eccentricity": 0.0002124,
        "meta_inclination": 0.0179,
        "meta_ra_of_asc_node": 357.1967,
        "meta_arg_of_pericenter": 280.3625,
        "meta_mean_anomaly": 229.3026,
        "meta_ephemeris_type": 0,
        "meta_classification_type": "U",
        "meta_norad_cat_id": 36106,
        "meta_element_set_no": 999,
        "meta_rev_at_epoch": 3942,
        "meta_bstar": 0,
        "meta_mean_motion_dot": -1.6e-06,
        "meta_mean_motion_ddot": 0,
        "tle_line1": "1 36106U 09067A   25352.92755321 -.00000160  00000+0  00000+0 0  9995",
        "tle_line2": "2 36106   0.0179 357.1967 0002124 280.3625 229.3026  1.00272402 39428"
      },
      "geometry": {
        "type": "Point",
        "coordinates": [
          -51.910546669537354,
          -0.03292852238778159
        ]
      }
    },
    {
      "type": "Feature",
      "properties": {
        "norad_id": 36131,
        "name": "DIRECTV 12",
        "group": "intelsat",
        "lat": 0.01550014784552035,
        "lon": 120.20696655046007,
        "alt_km": 35787.01032125962,
        "timestamp": "2025-12-19T08:58:49.004953+00:00",
        "meta_object_name": "DIRECTV 12",
        "meta_object_id": "2009-075A",
        "meta_epoch": "2025-12-18T20:43:10.822080",
        "meta_mean_motion": 1.00271221,
        "meta_eccentricity": 4.242e-05,
        "meta_inclination": 0.0364,
        "meta_ra_of_asc_node": 131.9635,
        "meta_arg_of_pericenter": 232.6466,
        "meta_mean_anomaly": 291.1917,
        "meta_ephemeris_type": 0,
        "meta_classification_type": "U",
        "meta_norad_cat_id": 36131,
        "meta_element_set_no": 999,
        "meta_rev_at_epoch": 4474,
        "meta_bstar": 0,
        "meta_mean_motion_dot": -7.8e-07,
        "meta_mean_motion_ddot": 0,
        "tle_line1": "1 36131U 09075A   25352.86331970 -.00000078  00000+0  00000+0 0  9993",
        "tle_line2": "2 36131   0.0364 131.9635 0000424 232.6466 291.1917  1.00271221 44741"
      },
      "geometry": {
        "type": "Point",
        "coordinates": [
          120.20696655046007,
          0.01550014784552035
        ]
      }
    },
    {
      "type": "Feature",
      "properties": {
        "norad_id": 36397,
        "name": "INTELSAT 16 (IS-16)",
        "group": "intelsat",
        "lat": 0.013003013356184449,
        "lon": 146.70786634522491,
        "alt_km": 35790.127828029414,
        "timestamp": "2025-12-19T08:58:49.004965+00:00",
        "meta_object_name": "INTELSAT 16 (IS-16)",
        "meta_object_id": "2010-006A",
        "meta_epoch": "2025-12-18T19:46:54.844032",
        "meta_mean_motion": 1.00272314,
        "meta_eccentricity": 0.00018235,
        "meta_inclination": 0.0062,
        "meta_ra_of_asc_node": 348.6474,
        "meta_arg_of_pericenter": 280.5374,
        "meta_mean_anomaly": 39.0331,
        "meta_ephemeris_type": 0,
        "meta_classification_type": "U",
        "meta_norad_cat_id": 36397,
        "meta_element_set_no": 999,
        "meta_rev_at_epoch": 5784,
        "meta_bstar": 0,
        "meta_mean_motion_dot": -2.2e-06,
        "meta_mean_motion_ddot": 0,
        "tle_line1": "1 36397U 10006A   25352.82424588 -.00000220  00000+0  00000+0 0  9996",
        "tle_line2": "2 36397   0.0062 348.6474 0001823 280.5374  39.0331  1.00272314 57840"
      },
      "geometry": {
        "type": "Point",
        "coordinates": [
          146.70786634522491,
          0.013003013356184449
        ]
      }
    },
    {
      "type": "Feature",
      "properties": {
        "norad_id": 37185,
        "name": "XM-5",
        "group": "intelsat",
        "lat": 0.005483049200019951,
        "lon": 107.7105821682668,
        "alt_km": 35779.34580739017,
        "timestamp": "2025-12-19T08:58:49.004977+00:00",
        "meta_object_name": "XM-5",
        "meta_object_id": "2010-053A",
        "meta_epoch": "2025-12-18T20:22:12.372384",
        "meta_mean_motion": 1.00271564,
        "meta_eccentricity": 0.00020077,
        "meta_inclination": 0.0627,
        "meta_ra_of_asc_node": 271.9192,
        "meta_arg_of_pericenter": 232.5831,
        "meta_mean_anomaly": 133.5627,
        "meta_ephemeris_type": 0,
        "meta_classification_type": "U",
        "meta_norad_cat_id": 37185,
        "meta_element_set_no": 999,
        "meta_rev_at_epoch": 5567,
        "meta_bstar": 0,
        "meta_mean_motion_dot": 2e-08,
        "meta_mean_motion_ddot": 0,
        "tle_line1": "1 37185U 10053A   25352.84875431  .00000002  00000+0  00000+0 0  9990",
        "tle_line2": "2 37185   0.0627 271.9192 0002007 232.5831 133.5627  1.00271564 55671"
      },
      "geometry": {
        "type": "Point",
        "coordinates": [
          107.7105821682668,
          0.005483049200019951
        ]
      }
    }
  ]
}